NORAD_CAT_ID,OBJECT_NAME,OBJECT_TYPE,EPOCH,MEAN_MOTION,ECCENTRICITY,INCLINATION,RA_OF_ASC_NODE,ARG_OF_PERICENTER,MEAN_ANOMALY,BSTAR,MEAN_MOTION_DOT,MEAN_MOTION_DDOT,TLE_LINE0,TLE_LINE1,TLE_LINE2,SEMIMAJOR_AXIS,PERIOD,APOGEE,PERIGEE,DECAYED
55295.0,STARLINK-5293,PAYLOAD,2024-06-03 04:41:49,14.9832957,0.0003109,69.9997,229.5848,268.7746,91.3056,4.3064e-05,4.21e-06,0.0,0 STARLINK-5293,1 55295U 23010AC  24155.19571688  .00000421  00000-0  43064-4 0  9992,2 55295  69.9997 229.5848 0003109 268.7746  91.3056 14.98329570 75934,6950.194,96.107,574.22,569.898,0.0
55295.0,STARLINK-5293,PAYLOAD,2024-06-03 11:06:22,14.98323773,0.0003251,69.9993,228.9107,267.1373,92.9414,1.117e-07,-9.2e-07,0.0,0 STARLINK-5293,1 55295U 23010AC  24155.46276146 -.00000092  00000-0  11170-6 0  9993,2 55295  69.9993 228.9107 0003251 267.1373  92.9414 14.98323773 76281,6950.212,96.107,574.337,569.818,0.0
55295.0,STARLINK-5293,PAYLOAD,2024-06-03 22:19:18,14.98334757,0.0003164,69.9999,227.7307,272.9852,87.0945,4.3691e-05,4.28e-06,0.0,0 STARLINK-5293,1 55295U 23010AC  24155.93007367  .00000428  00000-0  43691-4 0  9995,2 55295  69.9999 227.7307 0003164 272.9852  87.0945 14.98334757 76351,6950.178,96.107,574.242,569.844,0.0
55295.0,STARLINK-5293,PAYLOAD,2024-06-04 04:43:49,14.98336745,0.0003693,69.9988,227.059,270.8064,89.2671,0.00020836,2.394e-05,0.0,0 STARLINK-5293,1 55295U 23010AC  24156.19710635  .00002394  00000-0  20836-3 0  9992,2 55295  69.9988 227.0590 0003693 270.8064  89.2671 14.98336745 76084,6950.172,96.107,574.604,569.47,0.0
55295.0,STARLINK-5293,PAYLOAD,2024-06-04 11:08:21,14.98350866,0.0003378,69.9988,226.3851,271.3733,88.7039,0.00028562,3.318e-05,0.0,0 STARLINK-5293,1 55295U 23010AC  24156.46413434  .00003318  00000-0  28562-3 0  9990,2 55295  69.9988 226.3851 0003378 271.3733  88.7039 14.98350866 76122,6950.128,96.106,574.341,569.646,0.0
55295.0,STARLINK-5293,PAYLOAD,2024-06-04 22:21:18,14.98340655,0.0003385,69.9992,225.2082,272.1627,87.9145,0.00014688,1.66e-05,0.0,0 STARLINK-5293,1 55295U 23010AC  24156.93146080  .00001660  00000-0  14688-3 0  9994,2 55295  69.9992 225.2082 0003385 272.1627  87.9145 14.98340655 76506,6950.16,96.106,574.378,569.672,0.0
55295.0,STARLINK-5293,PAYLOAD,2024-06-05 04:45:51,14.98322747,0.0003388,69.9987,224.5328,267.2101,92.867,-1.8606e-05,-3.15e-06,0.0,0 STARLINK-5293,1 55295U 23010AC  24157.19851518 -.00000315  00000-0 -18606-4 0  9995,2 55295  69.9987 224.5328 0003388 267.2101  92.8670 14.98322747 76230,6950.215,96.107,574.435,569.726,0.0
55295.0,STARLINK-5293,PAYLOAD,2024-06-05 14:22:40,14.98320867,0.0003404,69.9993,223.5241,268.4737,91.6033,8.5183e-06,9e-08,0.0,0 STARLINK-5293,1 55295U 23010AC  24157.59907760  .00000009  00000-0  85183-5 0  9993,2 55295  69.9993 223.5241 0003404 268.4737  91.6033 14.98320867 76609,6950.221,96.108,574.452,569.72,0.0
55295.0,STARLINK-5293,PAYLOAD,2024-06-06 04:47:52,14.98336058,0.0003425,69.999,222.0093,269.6455,90.4311,-0.00013051,-1.65e-05,0.0,0 STARLINK-5293,1 55295U 23010AC  24158.19991121 -.00001650  00000-0 -13051-3 0  9992,2 55295  69.9990 222.0093 0003425 269.6455  90.4311 14.98336058 76388,6950.174,96.107,574.42,569.659,0.0
55295.0,STARLINK-5293,PAYLOAD,2024-06-06 11:12:22,14.98368055,0.0003561,69.9985,221.3352,274.0054,86.0698,0.00018959,2.172e-05,0.0,0 STARLINK-5293,1 55295U 23010AC  24158.46692239  .00002172  00000-0  18959-3 0  9990,2 55295  69.9985 221.3352 0003561 274.0054  86.0698 14.98368055 76424,6950.075,96.105,574.415,569.465,0.0
55295.0,STARLINK-5293,PAYLOAD,2024-06-07 09:38:16,14.98320444,0.0003276,69.999,218.9795,265.3629,94.7156,9.9301e-05,1.092e-05,0.0,0 STARLINK-5293,1 55295U 23010AC  24159.40158383  .00001092  00000-0  99301-4 0  9993,2 55295  69.9990 218.9795 0003276 265.3629  94.7156 14.98320444 76567,6950.222,96.108,574.364,569.811,0.0
55295.0,STARLINK-5293,PAYLOAD,2024-06-07 20:51:13,14.98324523,0.0003272,69.999,217.8012,266.7377,93.3407,5.5638e-05,5.71e-06,0.0,0 STARLINK-5293,1 55295U 23010AC  24159.86890433  .00000571  00000-0  55638-4 0  9998,2 55295  69.9990 217.8012 0003272 266.7377  93.3407 14.98324523 76946,6950.21,96.107,574.349,569.801,0.0
55295.0,STARLINK-5293,PAYLOAD,2024-06-08 11:16:26,14.98323061,0.0002873,69.9994,216.2871,258.699,101.3847,-7.6549e-05,-1.006e-05,0.0,0 STARLINK-5293,1 55295U 23010AC  24160.46974967 -.00001006  00000-0 -76549-4 0  9991,2 55295  69.9994 216.2871 0002873 258.6990 101.3847 14.98323061 77038,6950.214,96.107,574.076,570.083,0.0
55295.0,STARLINK-5293,PAYLOAD,2024-06-08 20:53:14,14.98342129,0.0003061,69.9993,215.2775,267.0642,93.0167,-0.00044913,-5.45e-05,0.0,0 STARLINK-5293,1 55295U 23010AC  24160.87030365 -.00005450  00000-0 -44913-3 0  9997,2 55295  69.9993 215.2775 0003061 267.0642  93.0167 14.98342129 76786,6950.155,96.106,574.148,569.893,0.0
55295.0,STARLINK-5293,PAYLOAD,2024-06-09 04:53:55,14.98312341,0.0002943,69.9993,214.4361,266.2833,93.799,6.3747e-05,6.67e-06,0.0,0 STARLINK-5293,1 55295U 23010AC  24161.20411352  .00000667  00000-0  63747-4 0  9994,2 55295  69.9993 214.4361 0002943 266.2833  93.7990 14.98312341 76839,6950.248,96.108,574.158,570.067,0.0
55295.0,STARLINK-5293,PAYLOAD,2024-06-09 11:18:28,14.98311304,0.0002964,69.9993,213.7628,266.4017,93.6803,4.1079e-05,3.97e-06,0.0,0 STARLINK-5293,1 55295U 23010AC  24161.47115767  .00000397  00000-0  41079-4 0  9998,2 55295  69.9993 213.7628 0002964 266.4017  93.6803 14.98311304 77185,6950.251,96.108,574.176,570.056,0.0
55295.0,STARLINK-5293,PAYLOAD,2024-06-09 20:55:16,14.98317577,0.0003019,69.999,212.7524,267.6765,92.4049,0.0001109,1.23e-05,0.0,0 STARLINK-5293,1 55295U 23010AC  24161.87171632  .00001230  00000-0  11090-3 0  9991,2 55295  69.9990 212.7524 0003019 267.6765  92.4049 14.98317577 77245,6950.231,96.108,574.195,569.998,0.0
55295.0,STARLINK-5293,PAYLOAD,2024-06-10 04:55:56,14.98314695,0.0003156,69.9987,211.9104,267.6507,92.4291,0.00032726,3.812e-05,0.0,0 STARLINK-5293,1 55295U 23010AC  24162.20551641  .00003812  00000-0  32726-3 0  9998,2 55295  69.9987 211.9104 0003156 267.6507  92.4291 14.98314695 76989,6950.24,96.108,574.299,569.912,0.0
55295.0,STARLINK-5293,PAYLOAD,2024-06-10 12:56:36,14.98327084,0.0003192,69.9988,211.0689,268.1836,91.8957,0.00021539,2.478e-05,0.0,0 STARLINK-5293,1 55295U 23010AC  24162.53931340  .00002478  00000-0  21539-3 0  9999,2 55295  69.9988 211.0689 0003192 268.1836  91.8957 14.98327084 77035,6950.202,96.107,574.285,569.848,0.0
55295.0,STARLINK-5293,PAYLOAD,2024-06-10 20:57:16,14.98338046,0.0003009,69.9988,210.2264,269.3957,90.6857,2.4427e-05,1.99e-06,0.0,0 STARLINK-5293,1 55295U 23010AC  24162.87310999  .00000199  00000-0  24427-4 0  9995,2 55295  69.9988 210.2264 0003009 269.3957  90.6857 14.98338046 77394,6950.168,96.106,574.124,569.942,0.0
55295.0,STARLINK-5293,PAYLOAD,2024-06-11 12:58:37,14.98340764,0.0003252,69.9993,208.5436,268.7043,91.3743,0.00043947,5.156e-05,0.0,0 STARLINK-5293,1 55295U 23010AC  24163.54071200  .00005156  00000-0  43947-3 0  9994,2 55295  69.9993 208.5436 0003252 268.7043  91.3743 14.98340764 77493,6950.16,96.106,574.285,569.764,0.0
55295.0,STARLINK-5293,PAYLOAD,2024-06-12 06:36:06,14.98331316,0.0003174,69.9995,206.6919,268.6965,91.3831,2.6288e-05,2.21e-06,0.0,0 STARLINK-5293,1 55295U 23010AC  24164.27507465  .00000221  00000-0  26288-4 0  9990,2 55295  69.9995 206.6919 0003174 268.6965  91.3831 14.98331316 77294,6950.189,96.107,574.26,569.848,0.0
55295.0,STARLINK-5293,PAYLOAD,2024-06-12 13:00:38,14.98331942,0.0003196,69.9987,206.0186,268.4795,91.5998,4.7446e-05,4.73e-06,0.0,0 STARLINK-5293,1 55295U 23010AC  24164.54211568  .00000473  00000-0  47446-4 0  9994,2 55295  69.9987 206.0186 0003196 268.4795  91.5998 14.98331942 77648,6950.187,96.107,574.273,569.831,0.0
55295.0,STARLINK-5293,PAYLOAD,2024-06-13 11:26:31,14.98336518,0.0003066,69.999,203.6629,267.696,92.3848,3.2391e-05,2.94e-06,0.0,0 STARLINK-5293,1 55295U 23010AC  24165.47674961  .00000294  00000-0  32391-4 0  9991,2 55295  69.9990 203.6629 0003066 267.6960  92.3848 14.98336518 77476,6950.173,96.107,574.169,569.907,0.0
55295.0,STARLINK-5293,PAYLOAD,2024-06-13 19:27:11,14.98333006,0.0003062,69.999,202.821,268.6542,91.4266,2.9105e-05,2.54e-06,0.0,0 STARLINK-5293,1 55295U 23010AC  24165.81055092  .00000254  00000-0  29105-4 0  9992,2 55295  69.9990 202.8210 0003062 268.6542  91.4266 14.98333006 77839,6950.184,96.107,574.177,569.92,0.0
55295.0,STARLINK-5293,PAYLOAD,2024-06-14 13:04:40,14.98329015,0.0003122,69.9988,200.9695,267.6172,92.4629,6.5679e-05,6.91e-06,0.0,0 STARLINK-5293,1 55295U 23010AC  24166.54491299  .00000691  00000-0  65679-4 0  9997,2 55295  69.9988 200.9695 0003122 267.6172  92.4629 14.98329015 77948,6950.196,96.107,574.231,569.891,0.0
55295.0,STARLINK-5293,PAYLOAD,2024-06-15 11:30:32,14.98335992,0.0003144,69.9987,198.6128,267.1117,92.9682,5.2969e-05,5.39e-06,0.0,0 STARLINK-5293,1 55295U 23010AC  24167.47954708  .00000539  00000-0  52969-4 0  9998,2 55295  69.9987 198.6128 0003144 267.1117  92.9682 14.98335992 78080,6950.174,96.107,574.224,569.854,0.0
55295.0,STARLINK-5293,PAYLOAD,2024-06-15 19:31:13,14.9833381,0.0003234,69.9986,197.7712,269.8514,90.2274,4.3566e-05,4.27e-06,0.0,0 STARLINK-5293,1 55295U 23010AC  24167.81334763  .00000427  00000-0  43566-4 0  9998,2 55295  69.9986 197.7712 0003234 269.8514  90.2274 14.98333810 78139,6950.181,96.107,574.294,569.798,0.0
55295.0,STARLINK-5293,PAYLOAD,2024-06-16 11:32:34,14.98330285,0.0003267,69.9984,196.0877,269.4535,90.6249,4.9994e-05,5.04e-06,0.0,0 STARLINK-5293,1 55295U 23010AC  24168.48094969  .00000504  00000-0  49994-4 0  9990,2 55295  69.9984 196.0877 0003267 269.4535  90.6249 14.98330285 78236,6950.192,96.107,574.328,569.786,0.0
55295.0,STARLINK-5293,PAYLOAD,2024-06-17 19:35:15,14.98331662,0.000325,69.9983,192.721,269.6595,90.4192,2.0611e-05,1.53e-06,0.0,0 STARLINK-5293,1 55295U 23010AC  24169.81614830  .00000153  00000-0  20611-4 0  9998,2 55295  69.9983 192.7210 0003250 269.6595  90.4192 14.98331662 78436,6950.188,96.107,574.312,569.794,0.0
